{
	"id": "1573159440857",
	"start": 1573159563880,
	"end": 1573159564880,
	"sampleRate": 48000,
	"inputSampleRate": 240000,
	"frequency": 437300000,
	"actualFrequency": 437307495,
	"satellite": "43466",
	"bandwidth": 10000,
	"tle": {
		"line1": "1KUNS-PF",
		"line2": "1 43466U 98067NP  19307.14795150  .00027937  00000-0  21276-3 0  9994",
		"line3": "2 43466  51.6360 354.2603 0002216   7.6551 352.4480 15.72027119 84490"
	},
	"groundStation": {
		"lat": 53.72,
		"lon": 47.57
	},
	"numberOfDecodedPackets": 0,
	"dataFormat": "COMPLEX_UNSIGNED_BYTE",
	"baudRates": [
		4800
	]
}
